{
  "type": "FeatureCollection",
  "features": [
    {
      "type": "Feature",
      "properties": {
        "name": "แปลงนาเหนือ",
        "crop": "ข้าว"
      },
      "geometry": {
        "type": "Polygon",
        "coordinates": [
          [
            [
              100.1189,
              14.47645
            ],
            [
              100.1231,
              14.47645
            ],
            [
              100.1231,
              14.47955
            ],
            [
              100.1189,
              14.47955
            ],
            [
              100.1189,
              14.47645
            ]
          ]
        ]
      }
    },
    {
      "type": "Feature",
      "properties": {
        "name": "แปลงนากลาง",
        "crop": "ข้าว"
      },
      "geometry": {
        "type": "Polygon",
        "coordinates": [
          [
            [
              100.12545,
              14.4729
            ],
            [
              100.12895,
              14.4729
            ],
            [
              100.12895,
              14.4755
            ],
            [
              100.12545,
              14.4755
            ],
            [
              100.12545,
              14.4729
            ]
          ]
        ]
      }
    },
    {
      "type": "Feature",
      "properties": {
        "name": "แปลงอ้อยริมคลอง",
        "crop": "อ้อย"
      },
      "geometry": {
        "type": "Polygon",
        "coordinates": [
          [
            [
              100.116,
              14.4694
            ],
            [
              100.121,
              14.4694
            ],
            [
              100.121,
              14.471599999999999
            ],
            [
              100.116,
              14.471599999999999
            ],
            [
              100.116,
              14.4694
            ]
          ]
        ]
      }
    }
  ]
}